{"type": "FeatureCollection", "features": [ {"type": "Feature", "properties": {"norad_id": 30345, "name": "FENGYUN 1C DEB", "group": "fengyun-1c-debris", "lat": -14.699772041386685, "lon": 63.81834656678405, "alt_km": 767.5377567519681, "timestamp": "2025-12-27T10:28:59.070287+00:00", "meta": {"OBJECT_NAME": "FENGYUN 1C DEB", "OBJECT_ID": "1999-025ABG", "EPOCH": "2025-12-27T03:53:24.759168", "MEAN_MOTION": 14.41844652, "ECCENTRICITY": 0.0018204, "INCLINATION": 98.9195, "RA_OF_ASC_NODE": 61.1703, "ARG_OF_PERICENTER": 201.978, "MEAN_ANOMALY": 158.0629, "EPHEMERIS_TYPE": 0, "CLASSIFICATION_TYPE": "U", "NORAD_CAT_ID": 30345, "ELEMENT_SET_NO": 999, "REV_AT_EPOCH": 97981, "BSTAR": 0.00241, "MEAN_MOTION_DOT": 7.857e-05, "MEAN_MOTION_DDOT": 0}, "tle": {"line1": "1 30345U 99025ABG 25361.16209212  .00007857  00000+0  24100-2 0  9995", "line2": "2 30345  98.9195  61.1703 0018204 201.9780 158.0629 14.41844652979812"}}, "geometry": {"type": "Point", "coordinates": [63.81834656678405, -14.699772041386685]}}, {"type": "Feature", "properties": {"norad_id": 30346, "name": "FENGYUN 1C DEB", "group": "fengyun-1c-debris", "lat": 5.715038271423632, "lon": 97.52139576601323, "alt_km": 745.0461245790439, "timestamp": "2025-12-27T10:28:59.070297+00:00", "meta": {"OBJECT_NAME": "FENGYUN 1C DEB", "OBJECT_ID": "1999-025ABH", "EPOCH": "2025-12-25T05:08:23.271072", "MEAN_MOTION": 14.34015409, "ECCENTRICITY": 0.0055061, "INCLINATION": 98.8077, "RA_OF_ASC_NODE": 96.1475, "ARG_OF_PERICENTER": 346.13, "MEAN_ANOMALY": 71.6635, "EPHEMERIS_TYPE": 0, "CLASSIFICATION_TYPE": "U", "NORAD_CAT_ID": 30346, "ELEMENT_SET_NO": 999, "REV_AT_EPOCH": 97592, "BSTAR": 0.0019443, "MEAN_MOTION_DOT": 5.48e-05, "MEAN_MOTION_DDOT": 0}, "tle": {"line1": "1 30346U 99025ABH 25359.21415823  .00005480  00000+0  19443-2 0  9990", "line2": "2 30346  98.8077  96.1475 0055061 346.1300  71.6635 14.34015409975924"}}, "geometry": {"type": "Point", "coordinates": [97.52139576601323, 5.715038271423632]}}, {"type": "Feature", "properties": {"norad_id": 30347, "name": "FENGYUN 1C DEB", "group": "fengyun-1c-debris", "lat": 20.084047457195982, "lon": -179.16040473806433, "alt_km": 821.4618601602442, "timestamp": "2025-12-27T10:28:59.070308+00:00", "meta": {"OBJECT_NAME": "FENGYUN 1C DEB", "OBJECT_ID": "1999-025ABJ", "EPOCH": "2025-12-26T23:07:26.528736", "MEAN_MOTION": 13.92775318, "ECCENTRICITY": 0.0149951, "INCLINATION": 98.3766, "RA_OF_ASC_NODE": 183.4993, "ARG_OF_PERICENTER": 354.2335, "MEAN_ANOMALY": 173.625, "EPHEMERIS_TYPE": 0, "CLASSIFICATION_TYPE": "U", "NORAD_CAT_ID": 30347, "ELEMENT_SET_NO": 999, "REV_AT_EPOCH": 96158, "BSTAR": 0.00020385, "MEAN_MOTION_DOT": 2.51e-06, "MEAN_MOTION_DDOT": 0}, "tle": {"line1": "1 30347U 99025ABJ 25360.96350149  .00000251  00000+0  20385-3 0  9993", "line2": "2 30347  98.3766 183.4993 0149951 354.2335 173.6250 13.92775318961588"}}, "geometry": {"type": "Point", "coordinates": [-179.16040473806433, 20.084047457195982]}}, {"type": "Feature", "properties": {"norad_id": 30348, "name": "FENGYUN 1C DEB", "group": "fengyun-1c-debris", "lat": 2.6143209794381987, "lon": 96.17580027019149, "alt_km": 766.5528085971137, "timestamp": "2025-12-27T10:28:59.070318+00:00", "meta": {"OBJECT_NAME": "FENGYUN 1C DEB", "OBJECT_ID": "1999-025ABK", "EPOCH": "2025-12-26T06:18:28.823904", "MEAN_MOTION": 14.35238963, "ECCENTRICITY": 0.0017325, "INCLINATION": 98.8628, "RA_OF_ASC_NODE": 95.379, "ARG_OF_PERICENTER": 332.0286, "MEAN_ANOMALY": 88.3539, "EPHEMERIS_TYPE": 0, "CLASSIFICATION_TYPE": "U", "NORAD_CAT_ID": 30348, "ELEMENT_SET_NO": 999, "REV_AT_EPOCH": 97728, "BSTAR": 0.0019396, "MEAN_MOTION_DOT": 5.517e-05, "MEAN_MOTION_DDOT": 0}, "tle": {"line1": "1 30348U 99025ABK 25360.26283361  .00005517  00000+0  19396-2 0  9997", "line2": "2 30348  98.8628  95.3790 0017325 332.0286  88.3539 14.35238963977289"}}, "geometry": {"type": "Point", "coordinates": [96.17580027019149, 2.6143209794381987]}}, {"type": "Feature", "properties": {"norad_id": 30349, "name": "FENGYUN 1C DEB", "group": "fengyun-1c-debris", "lat": 29.029036966505945, "lon": 148.04841423836575, "alt_km": 917.9832666526418, "timestamp": "2025-12-27T10:28:59.070328+00:00", "meta": {"OBJECT_NAME": "FENGYUN 1C DEB", "OBJECT_ID": "1999-025ABL", "EPOCH": "2025-12-26T10:30:39.851136", "MEAN_MOTION": 14.1120867, "ECCENTRICITY": 0.0088764, "INCLINATION": 98.586, "RA_OF_ASC_NODE": 322.2835, "ARG_OF_PERICENTER": 333.7821, "MEAN_ANOMALY": 145.1293, "EPHEMERIS_TYPE": 0, "CLASSIFICATION_TYPE": "U", "NORAD_CAT_ID": 30349, "ELEMENT_SET_NO": 999, "REV_AT_EPOCH": 96424, "BSTAR": 0.0022509, "MEAN_MOTION_DOT": 4.172e-05, "MEAN_MOTION_DDOT": 0}, "tle": {"line1": "1 30349U 99025ABL 25360.43796124  .00004172  00000+0  22509-2 0  9999", "line2": "2 30349  98.5860 322.2835 0088764 333.7821 145.1293 14.11208670964242"}}, "geometry": {"type": "Point", "coordinates": [148.04841423836575, 29.029036966505945]}}, {"type": "Feature", "properties": {"norad_id": 30350, "name": "FENGYUN 1C DEB", "group": "fengyun-1c-debris", "lat": 32.402568408270895, "lon": 172.5881514764072, "alt_km": 1041.0763363543947, "timestamp": "2025-12-27T10:28:59.070338+00:00", "meta": {"OBJECT_NAME": "FENGYUN 1C DEB", "OBJECT_ID": "1999-025ABM", "EPOCH": "2025-12-27T00:31:40.235808", "MEAN_MOTION": 13.82842745, "ECCENTRICITY": 0.0219304, "INCLINATION": 98.0926, "RA_OF_ASC_NODE": 177.412, "ARG_OF_PERICENTER": 269.2585, "MEAN_ANOMALY": 217.6834, "EPHEMERIS_TYPE": 0, "CLASSIFICATION_TYPE": "U", "NORAD_CAT_ID": 30350, "ELEMENT_SET_NO": 999, "REV_AT_EPOCH": 95179, "BSTAR": 0.00093723, "MEAN_MOTION_DOT": 1.191e-05, "MEAN_MOTION_DDOT": 0}, "tle": {"line1": "1 30350U 99025ABM 25361.02199347  .00001191  00000+0  93723-3 0  9996", "line2": "2 30350  98.0926 177.4120 0219304 269.2585 217.6834 13.82842745951791"}}, "geometry": {"type": "Point", "coordinates": [172.5881514764072, 32.402568408270895]}}, {"type": "Feature", "properties": {"norad_id": 30352, "name": "FENGYUN 1C DEB", "group": "fengyun-1c-debris", "lat": 8.033365171269722, "lon": -156.6763687850986, "alt_km": 874.4249201628736, "timestamp": "2025-12-27T10:28:59.070348+00:00", "meta": {"OBJECT_NAME": "FENGYUN 1C DEB", "OBJECT_ID": "1999-025ABP", "EPOCH": "2025-12-27T01:25:43.423968", "MEAN_MOTION": 14.07595284, "ECCENTRICITY": 0.0027538, "INCLINATION": 98.7636, "RA_OF_ASC_NODE": 21.7102, "ARG_OF_PERICENTER": 277.5484, "MEAN_ANOMALY": 143.8484, "EPHEMERIS_TYPE": 0, "CLASSIFICATION_TYPE": "U", "NORAD_CAT_ID": 30352, "ELEMENT_SET_NO": 999, "REV_AT_EPOCH": 97112, "BSTAR": 0.00023972, "MEAN_MOTION_DOT": 3.63e-06, "MEAN_MOTION_DDOT": 0}, "tle": {"line1": "1 30352U 99025ABP 25361.05953037  .00000363  00000+0  23972-3 0  9994", "line2": "2 30352  98.7636  21.7102 0027538 277.5484 143.8484 14.07595284971126"}}, "geometry": {"type": "Point", "coordinates": [-156.6763687850986, 8.033365171269722]}}, {"type": "Feature", "properties": {"norad_id": 30355, "name": "FENGYUN 1C DEB", "group": "fengyun-1c-debris", "lat": 36.91706418053383, "lon": -1.1915166790654295, "alt_km": 851.4469231718922, "timestamp": "2025-12-27T10:28:59.070360+00:00", "meta": {"OBJECT_NAME": "FENGYUN 1C DEB", "OBJECT_ID": "1999-025ABS", "EPOCH": "2025-12-26T19:40:05.079072", "MEAN_MOTION": 14.18856515, "ECCENTRICITY": 0.00529587, "INCLINATION": 98.5889, "RA_OF_ASC_NODE": 4.7302, "ARG_OF_PERICENTER": 268.32, "MEAN_ANOMALY": 217.4414, "EPHEMERIS_TYPE": 0, "CLASSIFICATION_TYPE": "U", "NORAD_CAT_ID": 30355, "ELEMENT_SET_NO": 999, "REV_AT_EPOCH": 97550, "BSTAR": 0.00062347948, "MEAN_MOTION_DOT": 1.273e-05, "MEAN_MOTION_DDOT": 0}, "tle": {"line1": "1 30355U 99025ABS 25360.81950323  .00001273  00000+0  62348-3 0  9996", "line2": "2 30355  98.5889   4.7302 0052958 268.3200 217.4414 14.18856515975504"}}, "geometry": {"type": "Point", "coordinates": [-1.1915166790654295, 36.91706418053383]}}, {"type": "Feature", "properties": {"norad_id": 30356, "name": "FENGYUN 1C DEB", "group": "fengyun-1c-debris", "lat": -70.04907190759845, "lon": 151.34055091285992, "alt_km": 818.6801170746612, "timestamp": "2025-12-27T10:28:59.070370+00:00", "meta": {"OBJECT_NAME": "FENGYUN 1C DEB", "OBJECT_ID": "1999-025ABT", "EPOCH": "2025-12-26T23:21:28.463040", "MEAN_MOTION": 14.13071408, "ECCENTRICITY": 0.005204, "INCLINATION": 98.6823, "RA_OF_ASC_NODE": 355.785, "ARG_OF_PERICENTER": 247.82, "MEAN_ANOMALY": 167.2755, "EPHEMERIS_TYPE": 0, "CLASSIFICATION_TYPE": "U", "NORAD_CAT_ID": 30356, "ELEMENT_SET_NO": 999, "REV_AT_EPOCH": 97222, "BSTAR": 0.00073007, "MEAN_MOTION_DOT": 1.338e-05, "MEAN_MOTION_DDOT": 0}, "tle": {"line1": "1 30356U 99025ABT 25360.97324610  .00001338  00000+0  73007-3 0  9994", "line2": "2 30356  98.6823 355.7850 0052040 247.8200 167.2755 14.13071408972226"}}, "geometry": {"type": "Point", "coordinates": [151.34055091285992, -70.04907190759845]}}, {"type": "Feature", "properties": {"norad_id": 30357, "name": "FENGYUN 1C DEB", "group": "fengyun-1c-debris", "lat": 27.044087022122554, "lon": 23.721344370591364, "alt_km": 879.980490745822, "timestamp": "2025-12-27T10:28:59.070380+00:00", "meta": {"OBJECT_NAME": "FENGYUN 1C DEB", "OBJECT_ID": "1999-025ABU", "EPOCH": "2025-12-27T02:06:49.527072", "MEAN_MOTION": 14.05270143, "ECCENTRICITY": 0.0048504, "INCLINATION": 98.805, "RA_OF_ASC_NODE": 27.921, "ARG_OF_PERICENTER": 289.1778, "MEAN_ANOMALY": 134.5707, "EPHEMERIS_TYPE": 0, "CLASSIFICATION_TYPE": "U", "NORAD_CAT_ID": 30357, "ELEMENT_SET_NO": 999, "REV_AT_EPOCH": 97008, "BSTAR": 0.0002782, "MEAN_MOTION_DOT": 4.12e-06, "MEAN_MOTION_DDOT": 0}, "tle": {"line1": "1 30357U 99025ABU 25361.08807323  .00000412  00000+0  27820-3 0  9999", "line2": "2 30357  98.8050  27.9210 0048504 289.1778 134.5707 14.05270143970082"}}, "geometry": {"type": "Point", "coordinates": [23.721344370591364, 27.044087022122554]}}]}